LEMUR-2-ARIANNA         
1 62699U 25009CU  26068.74082662  .00009084  00000+0  71790-3 0  9992
2 62699  97.6996 151.0445 0004640 147.3928 212.7583 15.00881954 62634
QPS-SAR-11 (YAMATSUMI-I)
1 64340U 25125A   26068.25519236  .00007204  00000+0  57385-3 0  9990
2 64340  42.0098  22.3823 0010044 210.0400 149.9850 15.00627459 40603
